STARLINK-31475          
1 59310U 24056Q   26068.44160918  .00000323  00000+0  21269-4 0  9991
2 59310  43.0040 228.8918 0001383 247.8741 112.1964 15.27574143111272
AL MUNTHER              
1 63240U 25052AG  26068.64540749  .00017933  00000+0  65015-3 0  9992
2 63240  97.4001 323.9152 0008027 130.7043 229.4895 15.28381521 54798
