[{"OBJECT_NAME":"STARLINK-31475","OBJECT_ID":"2024-056Q","EPOCH":"2026-03-09T10:35:55.033152","MEAN_MOTION":15.27574143,"ECCENTRICITY":0.00013835,"INCLINATION":43.004,"RA_OF_ASC_NODE":228.8918,"ARG_OF_PERICENTER":247.8741,"MEAN_ANOMALY":112.1964,"EPHEMERIS_TYPE":0,"CLASSIFICATION_TYPE":"U","NORAD_CAT_ID":59310,"ELEMENT_SET_NO":999,"REV_AT_EPOCH":11127,"BSTAR":2.126903e-5,"MEAN_MOTION_DOT":3.23e-6,"MEAN_MOTION_DDOT":0},{"OBJECT_NAME":"AL MUNTHER","OBJECT_ID":"2025-052AG","EPOCH":"2026-03-09T15:29:23.207136","MEAN_MOTION":15.28381521,"ECCENTRICITY":0.0008027,"INCLINATION":97.4001,"RA_OF_ASC_NODE":323.9152,"ARG_OF_PERICENTER":130.7043,"MEAN_ANOMALY":229.4895,"EPHEMERIS_TYPE":0,"CLASSIFICATION_TYPE":"U","NORAD_CAT_ID":63240,"ELEMENT_SET_NO":999,"REV_AT_EPOCH":5479,"BSTAR":0.00065015,"MEAN_MOTION_DOT":0.00017933,"MEAN_MOTION_DDOT":0}]
